NORAD_CAT_ID,OBJECT_NAME,OBJECT_TYPE,EPOCH,MEAN_MOTION,ECCENTRICITY,INCLINATION,RA_OF_ASC_NODE,ARG_OF_PERICENTER,MEAN_ANOMALY,BSTAR,MEAN_MOTION_DOT,MEAN_MOTION_DDOT,TLE_LINE0,TLE_LINE1,TLE_LINE2,SEMIMAJOR_AXIS,PERIOD,APOGEE,PERIGEE,DECAYED
55318.0,STARLINK-5180,PAYLOAD,2023-05-20 05:42:25,15.6992507,0.000298,69.9988,89.5336,261.6476,98.4382,2.1156e-05,2.332e-05,0.0,0 STARLINK-5180,1 55318U 23010BB  23140.23779239  .00002332  00000-0  21156-4 0  9999,2 55318  69.9988  89.5336 0002980 261.6476  98.4382 15.69925070 20648,6737.248,91.724,361.121,357.106,0.0
55318.0,STARLINK-5180,PAYLOAD,2023-05-21 03:06:58,15.69910509,0.0003083,69.9987,87.0261,268.3742,91.71,1.6917e-06,-9e-08,0.0,0 STARLINK-5180,1 55318U 23010BB  23141.12983847 -.00000009  00000-0  16917-5 0  9990,2 55318  69.9987  87.0261 0003083 268.3742  91.7100 15.69910509 19599,6737.29,91.725,361.232,357.078,0.0
55318.0,STARLINK-5180,PAYLOAD,2023-05-21 06:10:28,15.69910277,0.0003118,69.9981,86.6664,270.2136,89.8702,-1.4615e-06,-3.88e-06,0.0,0 STARLINK-5180,1 55318U 23010BB  23141.25727368 -.00000388  00000-0 -14615-5 0  9992,2 55318  69.9981  86.6664 0003118 270.2136  89.8702 15.69910277 20807,6737.291,91.725,361.256,357.055,0.0
55318.0,STARLINK-5180,PAYLOAD,2023-05-21 19:56:13,15.69922967,0.0003184,69.9997,85.0565,254.0256,106.0589,3.4599e-06,2.03e-06,0.0,0 STARLINK-5180,1 55318U 23010BB  23141.83071655  .00000203  00000-0  34599-5 0  9994,2 55318  69.9997  85.0565 0003184 254.0256 106.0589 15.69922967 20896,6737.254,91.724,361.265,356.974,0.0
55318.0,STARLINK-5180,PAYLOAD,2023-05-21 22:59:43,15.69924455,0.0003374,69.9994,84.697,253.5197,106.5628,8.8058e-06,8.46e-06,0.0,0 STARLINK-5180,1 55318U 23010BB  23141.95814772  .00000846  00000-0  88058-5 0  9994,2 55318  69.9994  84.6970 0003374 253.5197 106.5628 15.69924455 19720,6737.25,91.724,361.388,356.842,0.0
55318.0,STARLINK-5180,PAYLOAD,2023-05-22 03:34:58,15.69939985,0.000326,70.0003,84.1621,231.082,129.0086,2.1733e-05,2.403e-05,0.0,0 STARLINK-5180,1 55318U 23010BB  23142.14928523  .00002403  00000-0  21733-4 0  9993,2 55318  70.0003  84.1621 0003260 231.0820 129.0086 15.69939985 19755,6737.206,91.723,361.267,356.874,0.0
55318.0,STARLINK-5180,PAYLOAD,2023-05-22 23:27:46,15.69910885,0.0003284,70.0015,81.8341,219.9049,140.1906,2.9239e-05,3.303e-05,0.0,0 STARLINK-5180,1 55318U 23010BB  23142.97761873  .00003303  00000-0  29239-4 0  9996,2 55318  70.0015  81.8341 0003284 219.9049 140.1906 15.69910885 19882,6737.289,91.725,361.366,356.941,0.0
55318.0,STARLINK-5180,PAYLOAD,2023-05-23 19:20:31,15.6995687,0.000353,69.9988,79.5013,250.6094,109.472,-2.635e-05,-3.384e-05,0.0,0 STARLINK-5180,1 55318U 23010BB  23143.80592295 -.00003384  00000-0 -26350-4 0  9991,2 55318  69.9988  79.5013 0003530 250.6094 109.4720 15.69956870 21209,6737.157,91.722,361.401,356.644,0.0
55318.0,STARLINK-5180,PAYLOAD,2023-05-23 22:24:02,15.6992929,0.0003748,69.9989,79.1429,267.4386,92.6381,7.913e-06,7.39e-06,0.0,0 STARLINK-5180,1 55318U 23010BB  23143.93336368  .00000739  00000-0  79130-5 0  9996,2 55318  69.9989  79.1429 0003748 267.4386  92.6381 15.69929290 20030,6737.236,91.724,361.626,356.576,0.0
55318.0,STARLINK-5180,PAYLOAD,2023-05-24 06:02:48,15.6993102,0.0003707,69.9989,78.2472,265.9705,94.1067,9.1854e-06,8.92e-06,0.0,0 STARLINK-5180,1 55318U 23010BB  23144.25194516  .00000892  00000-0  91854-5 0  9996,2 55318  69.9989  78.2472 0003707 265.9705  94.1067 15.69931020 21270,6737.231,91.724,361.594,356.599,0.0
55318.0,STARLINK-5180,PAYLOAD,2023-05-25 18:44:51,15.69924466,0.0003591,69.9993,73.9492,266.5326,93.5459,7.8226e-06,7.28e-06,0.0,0 STARLINK-5180,1 55318U 23010BB  23145.78114954  .00000728  00000-0  78226-5 0  9999,2 55318  69.9993  73.9492 0003591 266.5326  93.5459 15.69924466 20325,6737.25,91.724,361.534,356.696,0.0
55318.0,STARLINK-5180,PAYLOAD,2023-05-25 21:48:21,15.69902001,0.0003374,69.9993,73.59,255.0984,104.9839,4.6727e-05,5.404e-05,0.0,0 STARLINK-5180,1 55318U 23010BB  23145.90858731  .00005404  00000-0  46727-4 0  9997,2 55318  69.9993  73.5900 0003374 255.0984 104.9839 15.69902001 21531,6737.314,91.725,361.453,356.906,0.0
55318.0,STARLINK-5180,PAYLOAD,2023-05-26 03:55:20,15.6993743,0.0003768,69.9982,72.8726,252.9598,107.1185,2.2209e-05,2.46e-05,0.0,0 STARLINK-5180,1 55318U 23010BB  23146.16343701  .00002460  00000-0  22209-4 0  9990,2 55318  69.9982  72.8726 0003768 252.9598 107.1185 15.69937430 20386,6737.213,91.723,361.617,356.539,0.0
55318.0,STARLINK-5180,PAYLOAD,2023-05-26 05:27:07,15.69913224,0.0003691,69.9983,72.6936,261.286,98.7917,-6.9923e-06,-1.053e-05,0.0,0 STARLINK-5180,1 55318U 23010BB  23146.22717383 -.00001053  00000-0 -69923-5 0  9992,2 55318  69.9983  72.6936 0003691 261.2860  98.7917 15.69913224 21584,6737.282,91.725,361.634,356.661,0.0
55318.0,STARLINK-5180,PAYLOAD,2023-05-26 22:16:24,15.69919113,0.0003624,69.9986,70.7232,268.6774,91.4006,1.6032e-06,-2e-07,0.0,0 STARLINK-5180,1 55318U 23010BB  23146.92805558 -.00000020  00000-0  16032-5 0  9996,2 55318  69.9986  70.7232 0003624 268.6774  91.4006 15.69919113 21690,6737.265,91.724,361.572,356.689,0.0
55318.0,STARLINK-5180,PAYLOAD,2023-05-27 02:51:38,15.69925197,0.0003701,69.9978,70.1865,260.0006,100.0772,9.5726e-06,9.38e-06,0.0,0 STARLINK-5180,1 55318U 23010BB  23147.11919917  .00000938  00000-0  95726-5 0  9997,2 55318  69.9978  70.1865 0003701 260.0006 100.0772 15.69925197 20535,6737.248,91.724,361.606,356.62,0.0
55318.0,STARLINK-5180,PAYLOAD,2023-05-27 21:12:40,15.69926548,0.0003479,69.999,68.0363,263.7442,96.3357,6.882e-06,6.15e-06,0.0,0 STARLINK-5180,1 55318U 23010BB  23147.88380079  .00000615  00000-0  68820-5 0  9999,2 55318  69.9990  68.0363 0003479 263.7442  96.3357 15.69926548 21846,6737.244,91.724,361.453,356.765,0.0
55318.0,STARLINK-5180,PAYLOAD,2023-05-28 04:51:26,15.69925838,0.0003496,69.9992,67.1408,261.2145,98.8655,7.6458e-06,7.07e-06,0.0,0 STARLINK-5180,1 55318U 23010BB  23148.20238438  .00000707  00000-0  76458-5 0  9995,2 55318  69.9992  67.1408 0003496 261.2145  98.8655 15.69925838 20703,6737.246,91.724,361.467,356.756,0.0
55318.0,STARLINK-5180,PAYLOAD,2023-05-28 21:40:42,15.69922582,0.0003538,69.9985,65.1696,263.6393,96.4399,8.4848e-06,8.07e-06,0.0,0 STARLINK-5180,1 55318U 23010BB  23148.90326993  .00000807  00000-0  84848-5 0  9999,2 55318  69.9985  65.1696 0003538 263.6393  96.4399 15.69922582 22007,6737.255,91.724,361.504,356.737,0.0
55318.0,STARLINK-5180,PAYLOAD,2023-05-29 03:47:42,15.69925899,0.0003666,69.9976,64.4534,258.738,101.3404,6.4354e-06,5.61e-06,0.0,0 STARLINK-5180,1 55318U 23010BB  23149.15813451  .00000561  00000-0  64354-5 0  9994,2 55318  69.9976  64.4534 0003666 258.7380 101.3404 15.69925899 22044,6737.246,91.724,361.581,356.641,0.0
55318.0,STARLINK-5180,PAYLOAD,2023-05-29 17:33:29,15.69917262,0.0003539,69.9977,62.8412,261.4924,98.5871,6.7268e-07,-1.32e-06,0.0,0 STARLINK-5180,1 55318U 23010BB  23149.73159279 -.00000132  00000-0  67268-6 0  9992,2 55318  69.9977  62.8412 0003539 261.4924  98.5871 15.69917262 20943,6737.271,91.725,361.52,356.751,0.0
55318.0,STARLINK-5180,PAYLOAD,2023-05-29 20:36:59,15.69922791,0.000333,69.9991,62.483,262.0841,97.9977,3.1752e-06,1.69e-06,0.0,0 STARLINK-5180,1 55318U 23010BB  23149.85902285  .00000169  00000-0  31752-5 0  9995,2 55318  69.9991  62.4830 0003330 262.0841  97.9977 15.69922791 22151,6737.255,91.724,361.363,356.876,0.0
55318.0,STARLINK-5180,PAYLOAD,2023-05-30 04:15:46,15.69906601,0.0003267,69.9992,61.5874,259.4245,100.6582,-1.2959e-05,-1.769e-05,0.0,0 STARLINK-5180,1 55318U 23010BB  23150.17761823 -.00001769  00000-0 -12959-4 0  9999,2 55318  69.9992  61.5874 0003267 259.4245 100.6582 15.69906601 21017,6737.301,91.725,361.367,356.965,0.0
55318.0,STARLINK-5180,PAYLOAD,2023-05-30 21:05:01,15.6992455,0.0003701,69.9973,59.6146,264.9747,95.1027,4.7487e-06,3.58e-06,0.0,0 STARLINK-5180,1 55318U 23010BB  23150.87848774  .00000358  00000-0  47487-5 0  9993,2 55318  69.9973  59.6146 0003701 264.9747  95.1027 15.69924550 22316,6737.25,91.724,361.608,356.621,0.0
55318.0,STARLINK-5180,PAYLOAD,2023-05-31 01:40:16,15.69928879,0.0003576,69.9976,59.0783,260.9198,99.1593,8.8827e-06,8.55e-06,0.0,0 STARLINK-5180,1 55318U 23010BB  23151.06963437  .00000855  00000-0  88827-5 0  9994,2 55318  69.9976  59.0783 0003576 260.9198  99.1593 15.69928879 21157,6737.237,91.724,361.512,356.693,0.0
55318.0,STARLINK-5180,PAYLOAD,2023-05-31 03:12:01,15.69928565,0.0003627,69.9975,58.8991,260.7019,99.3766,8.8058e-06,8.46e-06,0.0,0 STARLINK-5180,1 55318U 23010BB  23151.13335117  .00000846  00000-0  88058-5 0  9996,2 55318  69.9975  58.8991 0003627 260.7019  99.3766 15.69928565 22350,6737.238,91.724,361.547,356.66,0.0
55318.0,STARLINK-5180,PAYLOAD,2023-05-31 18:29:33,15.69921689,0.0003144,69.9983,57.1071,251.5639,108.5215,-2.282e-06,-4.87e-06,0.0,0 STARLINK-5180,1 55318U 23010BB  23151.77052715 -.00000487  00000-0 -22820-5 0  9994,2 55318  69.9983  57.1071 0003144 251.5639 108.5215 15.69921689 21261,6737.258,91.724,361.241,357.005,0.0
55318.0,STARLINK-5180,PAYLOAD,2023-05-31 21:33:03,15.69918973,0.0003443,69.9981,56.7494,258.5049,101.576,-2.7276e-06,-5.41e-06,0.0,0 STARLINK-5180,1 55318U 23010BB  23151.89796237 -.00000541  00000-0 -27276-5 0  9992,2 55318  69.9981  56.7494 0003443 258.5049 101.5760 15.69918973 22471,6737.266,91.724,361.45,356.811,0.0
55318.0,STARLINK-5180,PAYLOAD,2023-06-01 03:40:04,15.69923986,0.0003283,69.9989,56.0343,256.7976,103.2854,4.5549e-06,3.35e-06,0.0,0 STARLINK-5180,1 55318U 23010BB  23152.15282487  .00000335  00000-0  45549-5 0  9991,2 55318  69.9989  56.0343 0003283 256.7976 103.2854 15.69923986 22514,6737.251,91.724,361.328,356.905,0.0
55318.0,STARLINK-5180,PAYLOAD,2023-06-02 02:36:20,15.69924707,0.0003489,69.9979,53.3464,258.414,101.6664,4.3907e-06,3.15e-06,0.0,0 STARLINK-5180,1 55318U 23010BB  23153.10857387  .00000315  00000-0  43907-5 0  9998,2 55318  69.9979  53.3464 0003489 258.4140 101.6664 15.69924707 21474,6737.249,91.724,361.465,356.764,0.0
